{
  "type": "FeatureCollection",
  "features": [
    {
      "type": "Feature",
      "properties": {
        "norad_id": 66408,
        "name": "STARLINK-35679",
        "group": "last-30-days",
        "lat": 43.719222452772755,
        "lon": 52.86669566012235,
        "alt_km": 411.77887722444666,
        "timestamp": "2025-12-09T14:52:24.940331+00:00",
        "meta_object_name": "STARLINK-35679",
        "meta_object_id": "2025-257AE",
        "meta_epoch": "2025-12-09T05:04:06.822912",
        "meta_mean_motion": 15.49344451,
        "meta_eccentricity": 0.00014567,
        "meta_inclination": 53.1586,
        "meta_ra_of_asc_node": 280.6256,
        "meta_arg_of_pericenter": 79.4108,
        "meta_mean_anomaly": 280.7065,
        "meta_ephemeris_type": 0,
        "meta_classification_type": "U",
        "meta_norad_cat_id": 66408,
        "meta_element_set_no": 999,
        "meta_rev_at_epoch": 583,
        "meta_bstar": 0.0022740837,
        "meta_mean_motion_dot": 0.00128284,
        "meta_mean_motion_ddot": 0,
        "tle_line1": "1 66408U 25257AE  25343.21119008  .00128284  00000+0  22741-2 0  9996",
        "tle_line2": "2 66408  53.1586 280.6256 0001456  79.4108 280.7065 15.49344451  5832"
      },
      "geometry": {
        "type": "Point",
        "coordinates": [
          52.86669566012235,
          43.719222452772755
        ]
      }
    },
    {
      "type": "Feature",
      "properties": {
        "norad_id": 66409,
        "name": "CHUTIAN-2 A",
        "group": "last-30-days",
        "lat": -2.864406634696622,
        "lon": 48.852521244173865,
        "alt_km": 738.692710750347,
        "timestamp": "2025-12-09T14:52:24.940342+00:00",
        "meta_object_name": "CHUTIAN-2 A",
        "meta_object_id": "2025-256A",
        "meta_epoch": "2025-12-09T06:36:21.032352",
        "meta_mean_motion": 14.49934663,
        "meta_eccentricity": 0.0013569,
        "meta_inclination": 98.2767,
        "meta_ra_of_asc_node": 48.0969,
        "meta_arg_of_pericenter": 188.1339,
        "meta_mean_anomaly": 171.9637,
        "meta_ephemeris_type": 0,
        "meta_classification_type": "U",
        "meta_norad_cat_id": 66409,
        "meta_element_set_no": 999,
        "meta_rev_at_epoch": 437,
        "meta_bstar": 0.00035744821,
        "meta_mean_motion_dot": 1.34e-05,
        "meta_mean_motion_ddot": 0,
        "tle_line1": "1 66409U 25256A   25343.27524343  .00001340  00000+0  35745-3 0  9996",
        "tle_line2": "2 66409  98.2767  48.0969 0013569 188.1339 171.9637 14.49934663  4376"
      },
      "geometry": {
        "type": "Point",
        "coordinates": [
          48.852521244173865,
          -2.864406634696622
        ]
      }
    },
    {
      "type": "Feature",
      "properties": {
        "norad_id": 66410,
        "name": "CHUTIAN-2 B",
        "group": "last-30-days",
        "lat": 78.10040990095658,
        "lon": 4.768249552838032,
        "alt_km": 718.461600767705,
        "timestamp": "2025-12-09T14:52:24.940353+00:00",
        "meta_object_name": "CHUTIAN-2 B",
        "meta_object_id": "2025-256B",
        "meta_epoch": "2025-12-08T12:01:02.397216",
        "meta_mean_motion": 14.50918128,
        "meta_eccentricity": 0.0013696,
        "meta_inclination": 98.2797,
        "meta_ra_of_asc_node": 47.3789,
        "meta_arg_of_pericenter": 193.7504,
        "meta_mean_anomaly": 166.332,
        "meta_ephemeris_type": 0,
        "meta_classification_type": "U",
        "meta_norad_cat_id": 66410,
        "meta_element_set_no": 999,
        "meta_rev_at_epoch": 426,
        "meta_bstar": 0.00034704,
        "meta_mean_motion_dot": 1.327e-05,
        "meta_mean_motion_ddot": 0,
        "tle_line1": "1 66410U 25256B   25342.50072219  .00001327  00000+0  34704-3 0  9992",
        "tle_line2": "2 66410  98.2797  47.3789 0013696 193.7504 166.3320 14.50918128  4265"
      },
      "geometry": {
        "type": "Point",
        "coordinates": [
          4.768249552838032,
          78.10040990095658
        ]
      }
    },
    {
      "type": "Feature",
      "properties": {
        "norad_id": 66411,
        "name": "ZK-1A R/B",
        "group": "last-30-days",
        "lat": -14.351054395168047,
        "lon": -130.96916454100526,
        "alt_km": 486.1578560303551,
        "timestamp": "2025-12-09T14:52:24.940364+00:00",
        "meta_object_name": "ZK-1A R/B",
        "meta_object_id": "2025-256C",
        "meta_epoch": "2025-12-09T04:23:43.113696",
        "meta_mean_motion": 15.01858056,
        "meta_eccentricity": 0.02286804,
        "meta_inclination": 98.3224,
        "meta_ra_of_asc_node": 50.7087,
        "meta_arg_of_pericenter": 256.8431,
        "meta_mean_anomaly": 100.7186,
        "meta_ephemeris_type": 0,
        "meta_classification_type": "U",
        "meta_norad_cat_id": 66411,
        "meta_element_set_no": 999,
        "meta_rev_at_epoch": 451,
        "meta_bstar": 0.00076900005,
        "meta_mean_motion_dot": 0.00017708,
        "meta_mean_motion_ddot": 0,
        "tle_line1": "1 66411U 25256C   25343.18313789  .00017708  00000+0  76900-3 0  9992",
        "tle_line2": "2 66411  98.3224  50.7087 0228680 256.8431 100.7186 15.01858056  4512"
      },
      "geometry": {
        "type": "Point",
        "coordinates": [
          -130.96916454100526,
          -14.351054395168047
        ]
      }
    },
    {
      "type": "Feature",
      "properties": {
        "norad_id": 66412,
        "name": "HULIANWANG DIGUI 13A",
        "group": "last-30-days",
        "lat": -24.76996548438959,
        "lon": -107.61045690343725,
        "alt_km": 821.8447766471882,
        "timestamp": "2025-12-09T14:52:24.940378+00:00",
        "meta_object_name": "HULIANWANG DIGUI 13A",
        "meta_object_id": "2025-258A",
        "meta_epoch": "2025-12-08T08:38:10.619232",
        "meta_mean_motion": 14.20432847,
        "meta_eccentricity": 0.00076585,
        "meta_inclination": 50.0042,
        "meta_ra_of_asc_node": 280.4566,
        "meta_arg_of_pericenter": 343.0746,
        "meta_mean_anomaly": 16.9909,
        "meta_ephemeris_type": 0,
        "meta_classification_type": "U",
        "meta_norad_cat_id": 66412,
        "meta_element_set_no": 999,
        "meta_rev_at_epoch": 403,
        "meta_bstar": 0.00033138446,
        "meta_mean_motion_dot": 5.57e-06,
        "meta_mean_motion_ddot": 0,
        "tle_line1": "1 66412U 25258A   25342.35984513  .00000557  00000+0  33138-3 0  9992",
        "tle_line2": "2 66412  50.0042 280.4566 0007658 343.0746  16.9909 14.20432847  4032"
      },
      "geometry": {
        "type": "Point",
        "coordinates": [
          -107.61045690343725,
          -24.76996548438959
        ]
      }
    },
    {
      "type": "Feature",
      "properties": {
        "norad_id": 66413,
        "name": "HULIANWANG DIGUI 13B",
        "group": "last-30-days",
        "lat": -49.58012104945881,
        "lon": -165.14012063280668,
        "alt_km": 830.5270294653455,
        "timestamp": "2025-12-09T14:52:24.940389+00:00",
        "meta_object_name": "HULIANWANG DIGUI 13B",
        "meta_object_id": "2025-258B",
        "meta_epoch": "2025-12-08T20:40:52.882752",
        "meta_mean_motion": 14.19495379,
        "meta_eccentricity": 0.00049258,
        "meta_inclination": 49.9968,
        "meta_ra_of_asc_node": 278.4258,
        "meta_arg_of_pericenter": 347.5577,
        "meta_mean_anomaly": 12.5212,
        "meta_ephemeris_type": 0,
        "meta_classification_type": "U",
        "meta_norad_cat_id": 66413,
        "meta_element_set_no": 999,
        "meta_rev_at_epoch": 410,
        "meta_bstar": 0.00048755309,
        "meta_mean_motion_dot": 8.76e-06,
        "meta_mean_motion_ddot": 0,
        "tle_line1": "1 66413U 25258B   25342.86172318  .00000876  00000+0  48755-3 0  9996",
        "tle_line2": "2 66413  49.9968 278.4258 0004925 347.5577  12.5212 14.19495379  4101"
      },
      "geometry": {
        "type": "Point",
        "coordinates": [
          -165.14012063280668,
          -49.58012104945881
        ]
      }
    },
    {
      "type": "Feature",
      "properties": {
        "norad_id": 66414,
        "name": "HULIANWANG DIGUI 13C",
        "group": "last-30-days",
        "lat": -44.35894398972104,
        "lon": -139.92223597660652,
        "alt_km": 829.9886948862422,
        "timestamp": "2025-12-09T14:52:24.940399+00:00",
        "meta_object_name": "HULIANWANG DIGUI 13C",
        "meta_object_id": "2025-258C",
        "meta_epoch": "2025-12-09T03:21:13.066848",
        "meta_mean_motion": 14.19246085,
        "meta_eccentricity": 0.00047063,
        "meta_inclination": 50.0081,
        "meta_ra_of_asc_node": 277.2503,
        "meta_arg_of_pericenter": 342.5024,
        "meta_mean_anomaly": 17.5724,
        "meta_ephemeris_type": 0,
        "meta_classification_type": "U",
        "meta_norad_cat_id": 66414,
        "meta_element_set_no": 999,
        "meta_rev_at_epoch": 414,
        "meta_bstar": 0.00041183983,
        "meta_mean_motion_dot": 7.11e-06,
        "meta_mean_motion_ddot": 0,
        "tle_line1": "1 66414U 25258C   25343.13973457  .00000711  00000+0  41184-3 0  9998",
        "tle_line2": "2 66414  50.0081 277.2503 0004706 342.5024  17.5724 14.19246085  4145"
      },
      "geometry": {
        "type": "Point",
        "coordinates": [
          -139.92223597660652,
          -44.35894398972104
        ]
      }
    }
  ]
}